{
  "type": "FeatureCollection",
  "features": [
    {
      "type": "Feature",
      "properties": {
        "norad_id": 36441,
        "name": "COSMOS 2251 DEB",
        "group": "cosmos-2251-debris",
        "lat": 63.394510097753596,
        "lon": 134.903572946506,
        "alt_km": 469.56443528117325,
        "timestamp": "2025-12-12T11:38:31.809933+00:00",
        "meta_object_name": "COSMOS 2251 DEB",
        "meta_object_id": "1993-036BAQ",
        "meta_epoch": "2025-12-04T18:18:25.005024",
        "meta_mean_motion": 15.06603971,
        "meta_eccentricity": 0.01084902,
        "meta_inclination": 73.8352,
        "meta_ra_of_asc_node": 6.3404,
        "meta_arg_of_pericenter": 107.4279,
        "meta_mean_anomaly": 253.8807,
        "meta_ephemeris_type": 0,
        "meta_classification_type": "U",
        "meta_norad_cat_id": 36441,
        "meta_element_set_no": 999,
        "meta_rev_at_epoch": 86845,
        "meta_bstar": 0.00090032635,
        "meta_mean_motion_dot": 0.00015248,
        "meta_mean_motion_ddot": 0,
        "tle_line1": "1 36441U 93036BAQ 25338.76278941  .00015248  00000+0  90033-3 0  9991",
        "tle_line2": "2 36441  73.8352   6.3404 0108490 107.4279 253.8807 15.06603971868459"
      },
      "geometry": {
        "type": "Point",
        "coordinates": [
          134.903572946506,
          63.394510097753596
        ]
      }
    },
    {
      "type": "Feature",
      "properties": {
        "norad_id": 36442,
        "name": "COSMOS 2251 DEB",
        "group": "cosmos-2251-debris",
        "lat": -47.43957284094315,
        "lon": -121.91758751022199,
        "alt_km": 484.3692025758164,
        "timestamp": "2025-12-12T11:38:31.809943+00:00",
        "meta_object_name": "COSMOS 2251 DEB",
        "meta_object_id": "1993-036BAR",
        "meta_epoch": "2025-12-08T10:48:39.469248",
        "meta_mean_motion": 15.27762018,
        "meta_eccentricity": 0.00088131,
        "meta_inclination": 73.9528,
        "meta_ra_of_asc_node": 48.4206,
        "meta_arg_of_pericenter": 323.6974,
        "meta_mean_anomaly": 36.3628,
        "meta_ephemeris_type": 0,
        "meta_classification_type": "U",
        "meta_norad_cat_id": 36442,
        "meta_element_set_no": 999,
        "meta_rev_at_epoch": 85850,
        "meta_bstar": 0.005804433,
        "meta_mean_motion_dot": 0.00161056,
        "meta_mean_motion_ddot": 0,
        "tle_line1": "1 36442U 93036BAR 25342.45045682  .00161056  00000+0  58044-2 0  9991",
        "tle_line2": "2 36442  73.9528  48.4206 0008813 323.6974  36.3628 15.27762018858506"
      },
      "geometry": {
        "type": "Point",
        "coordinates": [
          -121.91758751022199,
          -47.43957284094315
        ]
      }
    },
    {
      "type": "Feature",
      "properties": {
        "norad_id": 36451,
        "name": "COSMOS 2251 DEB",
        "group": "cosmos-2251-debris",
        "lat": -35.88743880763778,
        "lon": 167.7022856190548,
        "alt_km": 762.0526896320061,
        "timestamp": "2025-12-12T11:38:31.809953+00:00",
        "meta_object_name": "COSMOS 2251 DEB",
        "meta_object_id": "1993-036BBA",
        "meta_epoch": "2025-12-08T10:10:07.447584",
        "meta_mean_motion": 14.18724413,
        "meta_eccentricity": 0.01840749,
        "meta_inclination": 73.9539,
        "meta_ra_of_asc_node": 342.9701,
        "meta_arg_of_pericenter": 168.3937,
        "meta_mean_anomaly": 192.1542,
        "meta_ephemeris_type": 0,
        "meta_classification_type": "U",
        "meta_norad_cat_id": 36451,
        "meta_element_set_no": 999,
        "meta_rev_at_epoch": 84164,
        "meta_bstar": 0.0010726423,
        "meta_mean_motion_dot": 2.61e-05,
        "meta_mean_motion_ddot": 0,
        "tle_line1": "1 36451U 93036BBA 25342.42369731  .00002610  00000+0  10726-2 0  9997",
        "tle_line2": "2 36451  73.9539 342.9701 0184074 168.3937 192.1542 14.18724413841646"
      },
      "geometry": {
        "type": "Point",
        "coordinates": [
          167.7022856190548,
          -35.88743880763778
        ]
      }
    },
    {
      "type": "Feature",
      "properties": {
        "norad_id": 36453,
        "name": "COSMOS 2251 DEB",
        "group": "cosmos-2251-debris",
        "lat": 70.61826261749806,
        "lon": -152.06858674389258,
        "alt_km": 663.859126326889,
        "timestamp": "2025-12-12T11:38:31.809962+00:00",
        "meta_object_name": "COSMOS 2251 DEB",
        "meta_object_id": "1993-036BBC",
        "meta_epoch": "2025-12-10T21:57:51.896736",
        "meta_mean_motion": 14.52584412,
        "meta_eccentricity": 0.0070369,
        "meta_inclination": 73.9233,
        "meta_ra_of_asc_node": 155.8519,
        "meta_arg_of_pericenter": 59.6886,
        "meta_mean_anomaly": 92.8235,
        "meta_ephemeris_type": 0,
        "meta_classification_type": "U",
        "meta_norad_cat_id": 36453,
        "meta_element_set_no": 999,
        "meta_rev_at_epoch": 84441,
        "meta_bstar": 0.0012973,
        "meta_mean_motion_dot": 5.456e-05,
        "meta_mean_motion_ddot": 0,
        "tle_line1": "1 36453U 93036BBC 25344.91518399  .00005456  00000+0  12973-2 0  9998",
        "tle_line2": "2 36453  73.9233 155.8519 0070369  59.6886  92.8235 14.52584412844417"
      },
      "geometry": {
        "type": "Point",
        "coordinates": [
          -152.06858674389258,
          70.61826261749806
        ]
      }
    },
    {
      "type": "Feature",
      "properties": {
        "norad_id": 36459,
        "name": "COSMOS 2251 DEB",
        "group": "cosmos-2251-debris",
        "lat": 18.99695283677809,
        "lon": 5.910315147115596,
        "alt_km": 783.4732416718762,
        "timestamp": "2025-12-12T11:38:31.809973+00:00",
        "meta_object_name": "COSMOS 2251 DEB",
        "meta_object_id": "1993-036BBJ",
        "meta_epoch": "2025-12-08T08:14:17.711520",
        "meta_mean_motion": 14.26367403,
        "meta_eccentricity": 0.01135417,
        "meta_inclination": 74.048,
        "meta_ra_of_asc_node": 7.7381,
        "meta_arg_of_pericenter": 104.7075,
        "meta_mean_anomaly": 256.669,
        "meta_ephemeris_type": 0,
        "meta_classification_type": "U",
        "meta_norad_cat_id": 36459,
        "meta_element_set_no": 999,
        "meta_rev_at_epoch": 7819,
        "meta_bstar": 0.0018203568,
        "meta_mean_motion_dot": 4.661e-05,
        "meta_mean_motion_ddot": 0,
        "tle_line1": "1 36459U 93036BBJ 25342.34326055  .00004661  00000+0  18204-2 0  9995",
        "tle_line2": "2 36459  74.0480   7.7381 0113541 104.7075 256.6690 14.26367403 78192"
      },
      "geometry": {
        "type": "Point",
        "coordinates": [
          5.910315147115596,
          18.99695283677809
        ]
      }
    },
    {
      "type": "Feature",
      "properties": {
        "norad_id": 36470,
        "name": "COSMOS 2251 DEB",
        "group": "cosmos-2251-debris",
        "lat": -10.772010241023967,
        "lon": -108.22528031291701,
        "alt_km": 549.4991598789647,
        "timestamp": "2025-12-12T11:38:31.809983+00:00",
        "meta_object_name": "COSMOS 2251 DEB",
        "meta_object_id": "1993-036BBV",
        "meta_epoch": "2025-12-11T11:47:48.523776",
        "meta_mean_motion": 15.07125789,
        "meta_eccentricity": 0.00234164,
        "meta_inclination": 73.8446,
        "meta_ra_of_asc_node": 257.0012,
        "meta_arg_of_pericenter": 85.44,
        "meta_mean_anomaly": 274.9463,
        "meta_ephemeris_type": 0,
        "meta_classification_type": "U",
        "meta_norad_cat_id": 36470,
        "meta_element_set_no": 999,
        "meta_rev_at_epoch": 66075,
        "meta_bstar": 0.0067772388,
        "meta_mean_motion_dot": 0.00103936,
        "meta_mean_motion_ddot": 0,
        "tle_line1": "1 36470U 93036BBV 25345.49153384  .00103936  00000+0  67772-2 0  9999",
        "tle_line2": "2 36470  73.8446 257.0012 0023416  85.4400 274.9463 15.07125789660752"
      },
      "geometry": {
        "type": "Point",
        "coordinates": [
          -108.22528031291701,
          -10.772010241023967
        ]
      }
    },
    {
      "type": "Feature",
      "properties": {
        "norad_id": 36528,
        "name": "COSMOS 2251 DEB",
        "group": "cosmos-2251-debris",
        "lat": 47.529437337728645,
        "lon": -52.56293776048881,
        "alt_km": 759.0588668651044,
        "timestamp": "2025-12-12T11:38:31.809993+00:00",
        "meta_object_name": "COSMOS 2251 DEB",
        "meta_object_id": "1993-036BCN",
        "meta_epoch": "2025-12-07T18:35:16.209888",
        "meta_mean_motion": 14.3059773,
        "meta_eccentricity": 0.00852102,
        "meta_inclination": 74.0157,
        "meta_ra_of_asc_node": 154.2656,
        "meta_arg_of_pericenter": 204.8135,
        "meta_mean_anomaly": 154.8907,
        "meta_ephemeris_type": 0,
        "meta_classification_type": "U",
        "meta_norad_cat_id": 36528,
        "meta_element_set_no": 999,
        "meta_rev_at_epoch": 64356,
        "meta_bstar": 0.0018462235,
        "meta_mean_motion_dot": 4.991e-05,
        "meta_mean_motion_ddot": 0,
        "tle_line1": "1 36528U 93036BCN 25341.77449317  .00004991  00000+0  18462-2 0  9997",
        "tle_line2": "2 36528  74.0157 154.2656 0085210 204.8135 154.8907 14.30597730643565"
      },
      "geometry": {
        "type": "Point",
        "coordinates": [
          -52.56293776048881,
          47.529437337728645
        ]
      }
    }
  ]
}